[{"OBJECT_NAME":"STARLINK-32622","OBJECT_ID":"2024-207R","EPOCH":"2026-03-09T22:22:17.427360","MEAN_MOTION":15.27602488,"ECCENTRICITY":8.951e-5,"INCLINATION":42.9991,"RA_OF_ASC_NODE":279.983,"ARG_OF_PERICENTER":273.3347,"MEAN_ANOMALY":86.7402,"EPHEMERIS_TYPE":0,"CLASSIFICATION_TYPE":"U","NORAD_CAT_ID":61927,"ELEMENT_SET_NO":999,"REV_AT_EPOCH":7476,"BSTAR":0.0010789444,"MEAN_MOTION_DOT":0.00029567,"MEAN_MOTION_DDOT":0},{"OBJECT_NAME":"HERMES-3","OBJECT_ID":"2025-052BR","EPOCH":"2026-03-09T22:30:01.073952","MEAN_MOTION":15.30039786,"ECCENTRICITY":0.00079928,"INCLINATION":97.3987,"RA_OF_ASC_NODE":324.6131,"ARG_OF_PERICENTER":112.9583,"MEAN_ANOMALY":247.2502,"EPHEMERIS_TYPE":0,"CLASSIFICATION_TYPE":"U","NORAD_CAT_ID":63835,"ELEMENT_SET_NO":999,"REV_AT_EPOCH":5486,"BSTAR":0.0006995793,"MEAN_MOTION_DOT":0.00020316,"MEAN_MOTION_DDOT":0}]
